IRIDIUM 112             
1 41925U 17003J   25089.75461490  .00000362  00000+0  12226-3 0  9998
2 41925  86.3905 273.5697 0002217  90.0402 270.1048 14.34218231429714
IRIDIUM 111             
1 41926U 17003K   25089.74192358  .00000024  00000+0  16796-5 0  9995
2 41926  86.3906 273.6358 0001994  89.4975 270.6449 14.34217417429691
IRIDIUM 113             
1 42803U 17039A   25089.65211741  .00000610  00000+0  21075-3 0  9992
2 42803  86.3999 147.5789 0002303 116.7380 243.4051 14.34212973407611
IRIDIUM 123             
1 42804U 17039B   25089.76336850  .00000032  00000+0  45116-5 0  9996
2 42804  86.4043 178.9526 0001903  93.6634 266.4779 14.34217351406391
IRIDIUM 120             
1 42805U 17039C   25089.64577542  .00000489  00000+0  16762-3 0  9998
2 42805  86.3991 147.4203 0001933 101.5549 258.5863 14.34220130407603
IRIDIUM 115             
1 42806U 17039D   25089.67852612  .00000139  00000+0  35302-4 0  9990
2 42806  86.4526 147.4741 0001749  78.8389 281.3009 14.43271308410297
IRIDIUM 118             
1 42807U 17039E   25089.72531183  .00000422  00000+0  14357-3 0  9995
2 42807  86.4044 178.9686 0002277  95.8529 264.2926 14.34220138406380
IRIDIUM 117             
1 42808U 17039F   25089.74433673  .00000615  00000+0  21252-3 0  9999
2 42808  86.4044 178.9226 0002055  88.7349 271.4083 14.34220696406413
